{
  "type": "FeatureCollection",
  "features": [
    {
      "type": "Feature",
      "properties": {
        "norad_id": 43564,
        "name": "GSAT0221 (GALILEO 25)",
        "group": "galileo",
        "lat": 31.560547377213023,
        "lon": 143.56844335969768,
        "alt_km": 23233.53643975926,
        "timestamp": "2025-12-10T09:57:44.962387+00:00",
        "meta_object_name": "GSAT0221 (GALILEO 25)",
        "meta_object_id": "2018-060A",
        "meta_epoch": "2025-12-09T00:16:12.119232",
        "meta_mean_motion": 1.70475733,
        "meta_eccentricity": 0.00067013,
        "meta_inclination": 57.2286,
        "meta_ra_of_asc_node": 346.9182,
        "meta_arg_of_pericenter": 282.1379,
        "meta_mean_anomaly": 77.8037,
        "meta_ephemeris_type": 0,
        "meta_classification_type": "U",
        "meta_norad_cat_id": 43564,
        "meta_element_set_no": 999,
        "meta_rev_at_epoch": 4592,
        "meta_bstar": 0,
        "meta_mean_motion_dot": -8.7e-07,
        "meta_mean_motion_ddot": 0,
        "tle_line1": "1 43564U 18060A   25343.01125138 -.00000087  00000+0  00000+0 0  9999",
        "tle_line2": "2 43564  57.2286 346.9182 0006701 282.1379  77.8037  1.70475733 45922"
      },
      "geometry": {
        "type": "Point",
        "coordinates": [
          143.56844335969768,
          31.560547377213023
        ]
      }
    },
    {
      "type": "Feature",
      "properties": {
        "norad_id": 43565,
        "name": "GSAT0222 (GALILEO 26)",
        "group": "galileo",
        "lat": 5.848863584480287,
        "lon": -9.33522383326865,
        "alt_km": 23226.055235847827,
        "timestamp": "2025-12-10T09:57:44.962399+00:00",
        "meta_object_name": "GSAT0222 (GALILEO 26)",
        "meta_object_id": "2018-060B",
        "meta_epoch": "2025-12-09T05:32:02.497344",
        "meta_mean_motion": 1.7047545,
        "meta_eccentricity": 0.00061659,
        "meta_inclination": 57.2321,
        "meta_ra_of_asc_node": 346.9153,
        "meta_arg_of_pericenter": 262.6798,
        "meta_mean_anomaly": 97.2666,
        "meta_ephemeris_type": 0,
        "meta_classification_type": "U",
        "meta_norad_cat_id": 43565,
        "meta_element_set_no": 999,
        "meta_rev_at_epoch": 4597,
        "meta_bstar": 0,
        "meta_mean_motion_dot": -8.7e-07,
        "meta_mean_motion_ddot": 0,
        "tle_line1": "1 43565U 18060B   25343.23058446 -.00000087  00000+0  00000+0 0  9991",
        "tle_line2": "2 43565  57.2321 346.9153 0006165 262.6798  97.2666  1.70475450 45978"
      },
      "geometry": {
        "type": "Point",
        "coordinates": [
          -9.33522383326865,
          5.848863584480287
        ]
      }
    },
    {
      "type": "Feature",
      "properties": {
        "norad_id": 43566,
        "name": "GSAT0219 (GALILEO 23)",
        "group": "galileo",
        "lat": -40.90641825497586,
        "lon": -159.19235195732335,
        "alt_km": 23216.981244395887,
        "timestamp": "2025-12-10T09:57:44.962410+00:00",
        "meta_object_name": "GSAT0219 (GALILEO 23)",
        "meta_object_id": "2018-060C",
        "meta_epoch": "2025-12-07T16:36:27.181728",
        "meta_mean_motion": 1.7047564,
        "meta_eccentricity": 0.00057893,
        "meta_inclination": 57.2316,
        "meta_ra_of_asc_node": 346.9585,
        "meta_arg_of_pericenter": 285.9629,
        "meta_mean_anomaly": 73.992,
        "meta_ephemeris_type": 0,
        "meta_classification_type": "U",
        "meta_norad_cat_id": 43566,
        "meta_element_set_no": 999,
        "meta_rev_at_epoch": 4592,
        "meta_bstar": 0,
        "meta_mean_motion_dot": -8.4e-07,
        "meta_mean_motion_ddot": 0,
        "tle_line1": "1 43566U 18060C   25341.69198127 -.00000084  00000+0  00000+0 0  9998",
        "tle_line2": "2 43566  57.2316 346.9585 0005789 285.9629  73.9920  1.70475640 45924"
      },
      "geometry": {
        "type": "Point",
        "coordinates": [
          -159.19235195732335,
          -40.90641825497586
        ]
      }
    },
    {
      "type": "Feature",
      "properties": {
        "norad_id": 43567,
        "name": "GSAT0220 (GALILEO 24)",
        "group": "galileo",
        "lat": 56.78756612197225,
        "lon": 87.17721899352651,
        "alt_km": 23233.715226612654,
        "timestamp": "2025-12-10T09:57:44.962425+00:00",
        "meta_object_name": "GSAT0220 (GALILEO 24)",
        "meta_object_id": "2018-060D",
        "meta_epoch": "2025-12-07T07:49:54.342624",
        "meta_mean_motion": 1.70475454,
        "meta_eccentricity": 0.00061757,
        "meta_inclination": 57.2312,
        "meta_ra_of_asc_node": 346.9681,
        "meta_arg_of_pericenter": 282.9528,
        "meta_mean_anomaly": 76.9979,
        "meta_ephemeris_type": 0,
        "meta_classification_type": "U",
        "meta_norad_cat_id": 43567,
        "meta_element_set_no": 999,
        "meta_rev_at_epoch": 4590,
        "meta_bstar": 0,
        "meta_mean_motion_dot": -8.3e-07,
        "meta_mean_motion_ddot": 0,
        "tle_line1": "1 43567U 18060D   25341.32632341 -.00000083  00000+0  00000+0 0  9999",
        "tle_line2": "2 43567  57.2312 346.9681 0006175 282.9528  76.9979  1.70475454 45901"
      },
      "geometry": {
        "type": "Point",
        "coordinates": [
          87.17721899352651,
          56.78756612197225
        ]
      }
    },
    {
      "type": "Feature",
      "properties": {
        "norad_id": 49809,
        "name": "GSAT0223 (GALILEO 27)",
        "group": "galileo",
        "lat": -5.319801146678381,
        "lon": 170.21320486935488,
        "alt_km": 23217.22731157414,
        "timestamp": "2025-12-10T09:57:44.962437+00:00",
        "meta_object_name": "GSAT0223 (GALILEO 27)",
        "meta_object_id": "2021-116A",
        "meta_epoch": "2025-12-09T19:43:21.531936",
        "meta_mean_motion": 1.7047574,
        "meta_eccentricity": 0.000464,
        "meta_inclination": 57.2199,
        "meta_ra_of_asc_node": 346.791,
        "meta_arg_of_pericenter": 251.5243,
        "meta_mean_anomaly": 290.6872,
        "meta_ephemeris_type": 0,
        "meta_classification_type": "U",
        "meta_norad_cat_id": 49809,
        "meta_element_set_no": 999,
        "meta_rev_at_epoch": 2495,
        "meta_bstar": 0,
        "meta_mean_motion_dot": -8.7e-07,
        "meta_mean_motion_ddot": 0,
        "tle_line1": "1 49809U 21116A   25343.82177699 -.00000087  00000+0  00000+0 0  9991",
        "tle_line2": "2 49809  57.2199 346.7910 0004640 251.5243 290.6872  1.70475740 24950"
      },
      "geometry": {
        "type": "Point",
        "coordinates": [
          170.21320486935488,
          -5.319801146678381
        ]
      }
    },
    {
      "type": "Feature",
      "properties": {
        "norad_id": 49810,
        "name": "GSAT0224 (GALILEO 28)",
        "group": "galileo",
        "lat": -47.343067583988955,
        "lon": -57.604942126217466,
        "alt_km": 23218.886354415245,
        "timestamp": "2025-12-10T09:57:44.962448+00:00",
        "meta_object_name": "GSAT0224 (GALILEO 28)",
        "meta_object_id": "2021-116B",
        "meta_epoch": "2025-12-07T13:56:35.698272",
        "meta_mean_motion": 1.7047563,
        "meta_eccentricity": 0.00040182,
        "meta_inclination": 57.2213,
        "meta_ra_of_asc_node": 346.8506,
        "meta_arg_of_pericenter": 254.5241,
        "meta_mean_anomaly": 105.0474,
        "meta_ephemeris_type": 0,
        "meta_classification_type": "U",
        "meta_norad_cat_id": 49810,
        "meta_element_set_no": 999,
        "meta_rev_at_epoch": 2493,
        "meta_bstar": 0,
        "meta_mean_motion_dot": -8.4e-07,
        "meta_mean_motion_ddot": 0,
        "tle_line1": "1 49810U 21116B   25341.58096873 -.00000084  00000+0  00000+0 0  9995",
        "tle_line2": "2 49810  57.2213 346.8506 0004018 254.5241 105.0474  1.70475630 24934"
      },
      "geometry": {
        "type": "Point",
        "coordinates": [
          -57.604942126217466,
          -47.343067583988955
        ]
      }
    },
    {
      "type": "Feature",
      "properties": {
        "norad_id": 59598,
        "name": "GSAT0225 (GALILEO 29)",
        "group": "galileo",
        "lat": -49.67408947890246,
        "lon": 50.79861723808793,
        "alt_km": 23230.48205002756,
        "timestamp": "2025-12-10T09:57:44.962460+00:00",
        "meta_object_name": "GSAT0225 (GALILEO 29)",
        "meta_object_id": "2024-079A",
        "meta_epoch": "2025-12-07T13:01:48.128160",
        "meta_mean_motion": 1.70474573,
        "meta_eccentricity": 0.0002046,
        "meta_inclination": 54.9986,
        "meta_ra_of_asc_node": 106.4402,
        "meta_arg_of_pericenter": 173.6326,
        "meta_mean_anomaly": 155.0404,
        "meta_ephemeris_type": 0,
        "meta_classification_type": "U",
        "meta_norad_cat_id": 59598,
        "meta_element_set_no": 999,
        "meta_rev_at_epoch": 1004,
        "meta_bstar": 0,
        "meta_mean_motion_dot": 7e-08,
        "meta_mean_motion_ddot": 0,
        "tle_line1": "1 59598U 24079A   25341.54291815  .00000007  00000+0  00000+0 0  9993",
        "tle_line2": "2 59598  54.9986 106.4402 0002046 173.6326 155.0404  1.70474573 10048"
      },
      "geometry": {
        "type": "Point",
        "coordinates": [
          50.79861723808793,
          -49.67408947890246
        ]
      }
    }
  ]
}